NORAD_CAT_ID,OBJECT_NAME,OBJECT_TYPE,EPOCH,MEAN_MOTION,ECCENTRICITY,INCLINATION,RA_OF_ASC_NODE,ARG_OF_PERICENTER,MEAN_ANOMALY,BSTAR,MEAN_MOTION_DOT,MEAN_MOTION_DDOT,TLE_LINE0,TLE_LINE1,TLE_LINE2,SEMIMAJOR_AXIS,PERIOD,APOGEE,PERIGEE,DECAYED
55417.0,STARLINK-5616,PAYLOAD,2023-07-31 09:59:03,14.98334895,0.000326,70.0011,325.3607,267.9833,92.0953,-6.0308e-05,-8.13e-06,0.0,0 STARLINK-5616,1 55417U 23014AC  23212.41600710 -.00000813  00000-0 -60308-4 0  9996,2 55417  70.0011 325.3607 0003260 267.9833  92.0953 14.98334895 28921,6950.178,96.107,574.309,569.777,0.0
55417.0,STARLINK-5616,PAYLOAD,2023-08-01 16:25:36,14.98326075,0.0003182,70.0015,322.1635,267.2415,92.838,2.3719e-05,1.9e-06,0.0,0 STARLINK-5616,1 55417U 23014AC  23213.68444910  .00000190  00000-0  23719-4 0  9995,2 55417  70.0015 322.1635 0003182 267.2415  92.8380 14.98326075 29118,6950.205,96.107,574.282,569.858,0.0
55417.0,STARLINK-5616,PAYLOAD,2023-08-02 16:27:36,14.98334746,0.0003276,70.0013,319.6386,268.7535,91.3249,2.5746e-05,2.14e-06,0.0,0 STARLINK-5616,1 55417U 23014AC  23214.68584305  .00000214  00000-0  25746-4 0  9998,2 55417  70.0013 319.6386 0003276 268.7535  91.3249 14.98334746 29261,6950.178,96.107,574.32,569.766,0.0
55417.0,STARLINK-5616,PAYLOAD,2023-08-03 10:05:05,14.98326248,0.0003317,70.001,317.7859,267.4669,92.611,5.0155e-05,5.05e-06,0.0,0 STARLINK-5616,1 55417U 23014AC  23215.42020659  .00000505  00000-0  50155-4 0  9993,2 55417  70.0010 317.7859 0003317 267.4669  92.6110 14.98326248 29373,6950.204,96.107,574.375,569.764,0.0
55417.0,STARLINK-5616,PAYLOAD,2023-08-03 19:41:53,14.98333094,0.0003413,70.0007,316.7756,268.4914,91.5854,0.00010612,1.174e-05,0.0,0 STARLINK-5616,1 55417U 23014AC  23215.82076071  .00001174  00000-0  10612-3 0  9992,2 55417  70.0007 316.7756 0003413 268.4914  91.5854 14.98333094 29432,6950.183,96.107,574.42,569.676,0.0
55417.0,STARLINK-5616,PAYLOAD,2023-08-04 10:07:06,14.98329015,0.0003392,70.0009,315.2618,268.6553,91.4217,-5.8224e-05,-7.88e-06,0.0,0 STARLINK-5616,1 55417U 23014AC  23216.42160772 -.00000788  00000-0 -58224-4 0  9995,2 55417  70.0009 315.2618 0003392 268.6553  91.4217 14.98329015 29522,6950.196,96.107,574.418,569.703,0.0
55417.0,STARLINK-5616,PAYLOAD,2023-08-05 10:09:07,14.98334624,0.0003395,70.0009,312.7367,266.5607,93.5164,7.9853e-05,8.6e-06,0.0,0 STARLINK-5616,1 55417U 23014AC  23217.42299931  .00000860  00000-0  79853-4 0  9996,2 55417  70.0009 312.7367 0003395 266.5607  93.5164 14.98334624 29677,6950.179,96.107,574.403,569.684,0.0
55417.0,STARLINK-5616,PAYLOAD,2023-08-05 16:33:38,14.98343452,0.0002894,70.001,312.0636,263.0388,97.0442,0.00013561,1.526e-05,0.0,0 STARLINK-5616,1 55417U 23014AC  23217.69003108  .00001526  00000-0  13561-3 0  9997,2 55417  70.0010 312.0636 0002894 263.0388  97.0442 14.98343452 29714,6950.151,96.106,574.028,570.005,0.0
55417.0,STARLINK-5616,PAYLOAD,2023-08-06 10:11:09,14.98314773,0.0003242,70.0009,310.2123,267.9584,92.1204,-0.0001017,-1.306e-05,0.0,0 STARLINK-5616,1 55417U 23014AC  23218.42441697 -.00001306  00000-0 -10170-3 0  9999,2 55417  70.0009 310.2123 0003242 267.9584  92.1204 14.98314773 29820,6950.24,96.108,574.358,569.852,0.0
55417.0,STARLINK-5616,PAYLOAD,2023-08-07 08:37:02,14.98329539,0.0003766,69.9998,307.8548,274.0368,86.0361,-0.0001288,-1.63e-05,0.0,0 STARLINK-5616,1 55417U 23014AC  23219.35905417 -.00001630  00000-0 -12880-3 0  9997,2 55417  69.9998 307.8548 0003766 274.0368  86.0361 14.98329539 29964,6950.194,96.107,574.677,569.442,0.0
55417.0,STARLINK-5616,PAYLOAD,2023-08-07 23:02:14,14.98338922,0.0003615,70.0001,306.3403,273.4476,86.627,-6.217e-05,-8.35e-06,0.0,0 STARLINK-5616,1 55417U 23014AC  23219.95988555 -.00000835  00000-0 -62170-4 0  9991,2 55417  70.0001 306.3403 0003615 273.4476  86.6270 14.98338922 30055,6950.165,96.106,574.543,569.518,0.0
55417.0,STARLINK-5616,PAYLOAD,2023-08-09 08:41:04,14.98326414,0.0003516,70.0001,302.8059,265.5911,94.4846,-9.6467e-06,-2.08e-06,0.0,0 STARLINK-5616,1 55417U 23014AC  23221.36185213 -.00000208  00000-0 -96467-5 0  9990,2 55417  70.0001 302.8059 0003516 265.5911  94.4846 14.98326414 30261,6950.204,96.107,574.513,569.625,0.0
55417.0,STARLINK-5616,PAYLOAD,2023-08-10 10:19:12,14.98336684,0.0003647,70.0001,300.113,269.9226,90.1515,-5.6529e-05,-7.68e-06,0.0,0 STARLINK-5616,1 55417U 23014AC  23222.43000525 -.00000768  00000-0 -56529-4 0  9996,2 55417  70.0001 300.1130 0003647 269.9226  90.1515 14.98336684 30428,6950.172,96.107,574.572,569.502,0.0
55417.0,STARLINK-5616,PAYLOAD,2023-08-11 10:21:13,14.98330683,0.0003713,69.9999,297.5873,269.0185,91.0548,4.3091e-05,4.21e-06,0.0,0 STARLINK-5616,1 55417U 23014AC  23223.43140352  .00000421  00000-0  43091-4 0  9994,2 55417  69.9999 297.5873 0003713 269.0185  91.0548 14.98330683 30578,6950.191,96.107,574.636,569.475,0.0
55417.0,STARLINK-5616,PAYLOAD,2023-08-11 18:21:53,14.98313399,0.000339,70.0001,296.7456,265.2431,94.8341,0.0003549,4.142e-05,0.0,0 STARLINK-5616,1 55417U 23014AC  23223.76520774  .00004142  00000-0  35490-3 0  9997,2 55417  70.0001 296.7456 0003390 265.2431  94.8341 14.98313399 30629,6950.244,96.108,574.465,569.753,0.0
55417.0,STARLINK-5616,PAYLOAD,2023-08-12 10:23:14,14.98334484,0.0003546,70.0,295.0629,265.3554,94.72,-3.158e-05,-4.7e-06,0.0,0 STARLINK-5616,1 55417U 23014AC  23224.43280158 -.00000470  00000-0 -31580-4 0  9990,2 55417  70.0000 295.0629 0003546 265.3554  94.7200 14.98334484 30724,6950.179,96.107,574.509,569.579,0.0
55417.0,STARLINK-5616,PAYLOAD,2023-08-13 13:37:31,14.98327943,0.0003649,69.9999,292.2018,268.2213,91.8528,-5.8065e-05,-7.86e-06,0.0,0 STARLINK-5616,1 55417U 23014AC  23225.56772571 -.00000786  00000-0 -58065-4 0  9997,2 55417  69.9999 292.2018 0003649 268.2213  91.8528 14.98327943 30898,6950.199,96.107,574.6,569.528,0.0
55417.0,STARLINK-5616,PAYLOAD,2023-08-14 13:39:31,14.98332506,0.0003706,69.9995,289.6766,267.874,92.1995,2.2577e-05,1.76e-06,0.0,0 STARLINK-5616,1 55417U 23014AC  23226.56912031  .00000176  00000-0  22577-4 0  9995,2 55417  69.9995 289.6766 0003706 267.8740  92.1995 14.98332506 31049,6950.185,96.107,574.626,569.474,0.0
55417.0,STARLINK-5616,PAYLOAD,2023-08-15 13:41:32,14.98330815,0.0003757,69.9993,287.151,269.9115,90.1613,5.5526e-05,5.7e-06,0.0,0 STARLINK-5616,1 55417U 23014AC  23227.57052010  .00000570  00000-0  55526-4 0  9997,2 55417  69.9993 287.1510 0003757 269.9115  90.1613 14.98330815 31194,6950.19,96.107,574.667,569.444,0.0
55417.0,STARLINK-5616,PAYLOAD,2023-08-16 10:31:18,14.98320779,0.0003682,69.9993,284.9626,269.7954,90.2783,0.000117,1.303e-05,0.0,0 STARLINK-5616,1 55417U 23014AC  23228.43840470  .00001303  00000-0  11700-3 0  9998,2 55417  69.9993 284.9626 0003682 269.7954  90.2783 14.98320779 31325,6950.221,96.108,574.645,569.527,0.0
55417.0,STARLINK-5616,PAYLOAD,2023-08-16 15:19:41,14.98331561,0.0003735,69.9992,284.4578,270.1738,89.8993,1.2739e-05,5.9e-07,0.0,0 STARLINK-5616,1 55417U 23014AC  23228.63868055  .00000059  00000-0  12739-4 0  9990,2 55417  69.9992 284.4578 0003735 270.1738  89.8993 14.98331561 31351,6950.188,96.107,574.649,569.457,0.0
55417.0,STARLINK-5616,PAYLOAD,2023-08-17 15:21:42,14.98334256,0.0003682,69.9991,281.9323,270.8526,89.2211,3.7669e-05,3.56e-06,0.0,0 STARLINK-5616,1 55417U 23014AC  23229.64007667  .00000356  00000-0  37669-4 0  9995,2 55417  69.9991 281.9323 0003682 270.8526  89.2211 14.98334256 31501,6950.18,96.107,574.604,569.486,0.0
55417.0,STARLINK-5616,PAYLOAD,2023-08-18 02:34:39,14.98326878,0.0003583,69.9992,280.7541,272.3599,87.715,2.5328e-06,-6.3e-07,0.0,0 STARLINK-5616,1 55417U 23014AC  23230.10740203 -.00000063  00000-0  25328-5 0  9994,2 55417  69.9992 280.7541 0003583 272.3599  87.7150 14.98326878 31571,6950.203,96.107,574.558,569.577,0.0
55417.0,STARLINK-5616,PAYLOAD,2023-08-19 09:01:12,14.98331224,0.0003696,69.9988,277.5558,270.7512,89.3223,-1.0203e-06,-1.05e-06,0.0,0 STARLINK-5616,1 55417U 23014AC  23231.37583893 -.00000105  00000-0 -10203-5 0  9998,2 55417  69.9988 277.5558 0003696 270.7512  89.3223 14.98331224 31761,6950.189,96.107,574.623,569.485,0.0
55417.0,STARLINK-5616,PAYLOAD,2023-08-20 12:15:29,14.98327496,0.00037,69.9986,274.6944,269.3356,90.7379,5.7054e-06,-2.5e-07,0.0,0 STARLINK-5616,1 55417U 23014AC  23232.51076068 -.00000025  00000-0  57054-5 0  9991,2 55417  69.9986 274.6944 0003700 269.3356  90.7379 14.98327496 31935,6950.201,96.107,574.637,569.494,0.0
55417.0,STARLINK-5616,PAYLOAD,2023-08-21 12:17:30,14.98330812,0.0003749,69.9984,272.1693,269.2074,90.8656,1.5224e-06,-7.5e-07,0.0,0 STARLINK-5616,1 55417U 23014AC  23233.51215852 -.00000075  00000-0  15224-5 0  9996,2 55417  69.9984 272.1693 0003749 269.2074  90.8656 14.98330812 32088,6950.19,96.107,574.661,569.45,0.0
55417.0,STARLINK-5616,PAYLOAD,2023-08-22 12:19:31,14.98330816,0.0003805,69.9982,269.6444,268.7075,91.3648,2.8615e-05,2.48e-06,0.0,0 STARLINK-5616,1 55417U 23014AC  23234.51355695  .00000248  00000-0  28615-4 0  9995,2 55417  69.9982 269.6444 0003805 268.7075  91.3648 14.98330816 32237,6950.19,96.107,574.7,569.411,0.0
55417.0,STARLINK-5616,PAYLOAD,2023-08-23 12:21:32,14.98330033,0.0003784,69.9982,267.1195,267.3625,92.7101,-5.0137e-06,-1.53e-06,0.0,0 STARLINK-5616,1 55417U 23014AC  23235.51495764 -.00000153  00000-0 -50137-5 0  9990,2 55417  69.9982 267.1195 0003784 267.3625  92.7101 14.98330033 32381,6950.193,96.107,574.688,569.428,0.0
55417.0,STARLINK-5616,PAYLOAD,2023-08-24 12:23:33,14.9833169,0.0003816,69.9982,264.5942,267.9202,92.152,9.4415e-06,2e-07,0.0,0 STARLINK-5616,1 55417U 23014AC  23236.51635510  .00000020  00000-0  94415-5 0  9994,2 55417  69.9982 264.5942 0003816 267.9202  92.1520 14.98331690 32531,6950.188,96.107,574.705,569.4,0.0
55417.0,STARLINK-5616,PAYLOAD,2023-08-25 10:49:26,14.98329105,0.0003778,69.9982,262.2378,266.1411,93.9316,1.926e-06,-7e-07,0.0,0 STARLINK-5616,1 55417U 23014AC  23237.45099641 -.00000070  00000-0  19260-5 0  9998,2 55417  69.9982 262.2378 0003778 266.1411  93.9316 14.98329105 32674,6950.196,96.107,574.686,569.435,0.0
